[{"OBJECT_NAME":"STARLINK-35044","OBJECT_ID":"2025-200S","EPOCH":"2026-03-09T17:02:41.337888","MEAN_MOTION":15.05646584,"ECCENTRICITY":0.00010278,"INCLINATION":97.6024,"RA_OF_ASC_NODE":139.8141,"ARG_OF_PERICENTER":95.1617,"MEAN_ANOMALY":264.9727,"EPHEMERIS_TYPE":0,"CLASSIFICATION_TYPE":"U","NORAD_CAT_ID":65536,"ELEMENT_SET_NO":999,"REV_AT_EPOCH":2913,"BSTAR":0.00015199344,"MEAN_MOTION_DOT":2.133e-5,"MEAN_MOTION_DDOT":0},{"OBJECT_NAME":"SL-8 R\/B","OBJECT_ID":"1968-040B","EPOCH":"2026-03-09T18:37:46.369632","MEAN_MOTION":15.03260494,"ECCENTRICITY":0.00239141,"INCLINATION":74.0322,"RA_OF_ASC_NODE":313.5182,"ARG_OF_PERICENTER":137.361,"MEAN_ANOMALY":222.9441,"EPHEMERIS_TYPE":0,"CLASSIFICATION_TYPE":"U","NORAD_CAT_ID":3230,"ELEMENT_SET_NO":999,"REV_AT_EPOCH":9002,"BSTAR":0.00025747843,"MEAN_MOTION_DOT":3.469e-5,"MEAN_MOTION_DDOT":0}]
